{
  "type": "FeatureCollection",
  "features": [
    {
      "type": "Feature",
      "geometry": {
        "type": "Point",
        "coordinates": [
          10.07562600849257,
          9.26684288747346
        ]
      },
      "properties": {
        "kind": "node"
      }
    },
    {
      "type": "Feature",
      "geometry": {
        "type": "Point",
        "coordinates": [
          10.522032059447984,
          9.449656794055201
        ]
      },
      "properties": {
        "kind": "node"
      }
    },
    {
      "type": "Feature",
      "geometry": {
        "type": "LineString",
        "coordinates": [
          [
            10.679337048832272,
            9.674985562632695
          ],
          [
            10.857899469214438,
            9.874805414012739
          ]
        ]
      },
      "properties": {
        "kind": "link"
      }
    },
    {
      "type": "Feature",
      "geometry": {
        "type": "Point",
        "coordinates": [
          10.857899469214438,
          9.874805414012739
        ]
      },
      "properties": {
        "kind": "node"
      }
    },
    {
      "type": "Feature",
      "geometry": {
        "type": "Point",
        "coordinates": [
          6.372581528662422,
          8.548341719745224
        ]
      },
      "properties": {
        "kind": "node"
      }
    },
    {
      "type": "Feature",
      "geometry": {
        "type": "LineString",
        "coordinates": [
          [
            6.372581528662422,
            8.548341719745224
          ],
          [
            7.125094585987262,
            9.364627070063694
          ],
          [
            8.617366242038218,
            9.517680573248407
          ],
          [
            10.07562600849257,
            9.26684288747346
          ],
          [
            10.522032059447984,
            9.449656794055201
          ],
          [
            10.679337048832272,
            9.674985562632695
          ]
        ]
      },
      "properties": {
        "kind": "link"
      }
    },
    {
      "type": "Feature",
      "geometry": {
        "type": "Polygon",
        "coordinates": [
          [
            [
              6.580904352441615,
              8.012654458598726
            ],
            [
              6.529886518046711,
              7.319662208067941
            ],
            [
              7.375932271762209,
              7.179363163481954
            ],
            [
              7.826589808917198,
              8.263492144373673
            ],
            [
              6.899765817409768,
              8.161456475583865
            ],
            [
              6.580904352441615,
              8.012654458598726
            ]
          ]
        ]
      },
      "properties": {
        "kind": "block"
      }
    },
    {
      "type": "Feature",
      "geometry": {
        "type": "Polygon",
        "coordinates": [
          [
            [
              6.899765817409768,
              8.161456475583865
            ],
            [
              6.899765817409768,
              8.161456475583865
            ],
            [
              6.899765817409768,
              8.161456475583865
            ],
            [
              6.899765817409768,
              8.161456475583865
            ]
          ]
        ]
      },
      "properties": {
        "kind": "block"
      }
    },
    {
      "type": "Feature",
      "geometry": {
        "type": "Point",
        "coordinates": [
          7.125094585987262,
          9.364627070063694
        ]
      },
      "properties": {
        "kind": "node"
      }
    },
    {
      "type": "Feature",
      "geometry": {
        "type": "Point",
        "coordinates": [
          8.617366242038218,
          9.517680573248407
        ]
      },
      "properties": {
        "kind": "node"
      }
    }
  ]
}