{
  "type": "FeatureCollection",
  "features": [
    {
      "type": "Feature",
      "geometry": {
        "type": "Polygon",
        "coordinates": [
          [
            [
              0.7296322961268611,
              -0.4745284566099106
            ],
            [
              -1.280434426854236,
              0.08562790784714869
            ],
            [
              -4.671235392516504,
              -0.4681315719571233
            ],
            [
              -4.781894691846824,
              0.19314232557413225
            ],
            [
              -3.130434426854236,
              0.4356279078471489
            ],
            [
              -4.190057517586868,
              0.5711626849687779
            ],
            [
              -4.430434426854236,
              1.635627907847149
            ],
            [
              -4.240878762486452,
              3.8200113420824566
            ],
            [
              -0.6413735094598296,
              4.422361942526207
            ],
            [
              -0.3711371631339331,
              2.807493214177322
            ],
            [
              1.2535732656640082,
              3.079376496334162
            ],
            [
              1.5695655731457643,
              2.1856279078471488
            ],
            [
              0.6695655731457644,
              0.5356279078471489
            ],
            [
              0.7296322961268611,
              -0.4745284566099106
            ]
          ]
        ]
      },
      "properties": {
        "source": "scan-to-map-studio",
        "room": "20260905-room1",
        "importedAt": "2026-09-05T02:32:58.536Z",
        "category": "room",
        "kind": "room-outline",
        "area_m2": 21.49
      }
    }
  ],
  "scanAlignment": {
    "file": "../vps-system/data/project_20260905/group_alignment.json",
    "reference": "scan_20260905_102404",
    "scan": "scan_20260905_102404",
    "offsetX": 0,
    "offsetZ": 0,
    "yawRadians": 0,
    "method": "reference"
  }
}