{
  "type": "FeatureCollection",
  "features": [
    {
      "type": "Feature",
      "geometry": {
        "type": "Polygon",
        "coordinates": [
          [
            [
              4.696393994321141,
              -2.249532816919658
            ],
            [
              0.23907769084081265,
              -2.2504942161643267
            ],
            [
              0.23953510191539917,
              -4.371180134583052
            ],
            [
              0.9971813723190589,
              -4.8090850181188705
            ],
            [
              -0.30617154313347295,
              -5.35109163964797
            ],
            [
              -1.4295972008020188,
              -5.090652678675601
            ],
            [
              -1.4299728197249735,
              -3.3491780951821637
            ],
            [
              -6.159512893246113,
              -3.3501982104140047
            ],
            [
              -6.160470313369771,
              1.0886697730238808
            ],
            [
              -5.210677270721545,
              1.4289027237756318
            ],
            [
              -4.391530037654653,
              0.7644497077098972
            ],
            [
              -1.175534913495608,
              0.69110500977698
            ],
            [
              -1.1758249489875552,
              2.035790824764844
            ],
            [
              -3.4616201589457187,
              2.0352978012415623
            ],
            [
              -3.4620747085078913,
              4.1427169462504825
            ],
            [
              -1.5538847285956594,
              4.143128524043141
            ],
            [
              -1.657319330257732,
              3.4053002918126847
            ],
            [
              -1.2444343142138945,
              2.024795873395761
            ],
            [
              1.9177425285448964,
              2.0254779238093166
            ],
            [
              2.6514334050270456,
              3.938826173261705
            ],
            [
              2.6583888177154704,
              3.1610398129838106
            ],
            [
              1.873489373825067,
              0.6657914631184348
            ],
            [
              3.7823598697741105,
              0.6662031876917037
            ],
            [
              3.7825926004487016,
              -0.4128014359616089
            ],
            [
              4.6959977869511125,
              -0.4126044234552958
            ],
            [
              4.696393994321141,
              -2.249532816919658
            ]
          ]
        ]
      },
      "properties": {
        "source": "scan-to-map-studio",
        "room": "20260905-room2",
        "importedAt": "2026-09-05T02:32:58.638Z",
        "category": "room",
        "kind": "room-outline",
        "area_m2": 51.31
      }
    }
  ],
  "scanAlignment": {
    "file": "../vps-system/data/project_20260905/group_alignment.json",
    "reference": "scan_20260905_102404",
    "scan": "scan_20260905_102537",
    "offsetX": 0.0859591627290025,
    "offsetZ": -0.29648433913452343,
    "yawRadians": 0.7943404998091396,
    "method": "icp"
  }
}