{
  "type": "FeatureCollection",
  "features": [
    {
      "type": "Feature",
      "geometry": {
        "type": "Polygon",
        "coordinates": [
          [
            [
              -2.42645765950399,
              -2.488600706457701
            ],
            [
              -0.2048320094842091,
              -1.059763804822194
            ],
            [
              -0.8834956659908939,
              3.4812807541318125
            ],
            [
              2.733733911323232,
              4.021879336571091
            ],
            [
              3.22354234049601,
              2.211399293542299
            ],
            [
              3.2067118456598505,
              0.9126202342695613
            ],
            [
              3.42354234049601,
              0.7613992935422984
            ],
            [
              -0.28220205803807574,
              0.16306720929250862
            ],
            [
              0.09068407336424378,
              -2.331972155022168
            ],
            [
              -2.42645765950399,
              -2.488600706457701
            ]
          ]
        ]
      },
      "properties": {
        "source": "scan-to-map-studio",
        "room": "bedroom",
        "importedAt": "2026-08-29T03:44:18.851Z",
        "category": "room",
        "kind": "room-outline",
        "area_m2": 14.44
      }
    }
  ]
}